INTELSAT 902 (IS-902)   
1 26900U 01039A   26154.69963992 -.00000273  00000+0  00000+0 0  9992
2 26900   6.0844  71.9452 0004265 358.1183  23.8551  1.00271878 90563
INTELSAT 904 (IS-904)   
1 27380U 02007A   26154.63200581 -.00000216  00000+0  00000+0 0  9990
2 27380   6.8864  69.3464 0007333 358.2567  20.5246  1.00271187 51639
DIRECTV 5 (TEMPO 1)     
1 27426U 02023A   26154.62667259 -.00000047  00000+0  00000+0 0  9999
2 27426   4.8432  75.4778 0003563   3.0335 289.0745  1.00271884 87981
INTELSAT 905 (IS-905)   
1 27438U 02027A   26154.63287483  .00000103  00000+0  00000+0 0  9996
2 27438   6.7196  69.9626 0004265  10.2968 262.4516  1.00271994 51225
GALAXY 3C (G-3C)        
1 27445U 02030A   26154.90458933 -.00000142  00000+0  00000+0 0  9992
2 27445   3.6963  78.1546 0001978  28.1667  16.8376  1.00271986 46361
INTELSAT 906 (IS-906)   
1 27513U 02041A   26154.36580809  .00000022  00000+0  00000+0 0  9994
2 27513   5.7690  73.0896 0004617 355.6971  18.8893  1.00273390 86897
GALAXY 13 (HORIZONS-1)  
1 27954U 03044A   26154.75109067  .00000144  00000+0  00000+0 0  9998
2 27954   1.3855  84.0202 0002061 340.7097 307.8506  1.00271174 46435
INTELSAT 10-02          
1 28358U 04022A   26154.92323201  .00000001  00000+0  00000+0 0  9993
2 28358   0.0109 351.0462 0000320 134.4604  98.2294  1.00269795 80423
DIRECTV 8               
1 28659U 05019A   26154.89982265  .00000013  00000+0  00000+0 0  9994
2 28659   0.0189 319.6294 0003191 116.4920  21.1272  1.00273260 76943
GALAXY 28 (G-28)        
1 28702U 05022A   26154.91784939 -.00000189  00000+0  00000+0 0  9993
2 28702   3.2645  79.0971 0003321 357.1929 119.4081  1.00268735 51843
GALAXY 16 (G-16)        
1 29236U 06023A   26154.90380933 -.00000115  00000+0  00000+0 0  9992
2 29236   0.0267 209.2328 0003173 233.6382  35.8617  1.00273904 72843
DIRECTV 9S              
1 29494U 06043A   26154.90337600 -.00000102  00000+0  00000+0 0  9999
2 29494   2.3864  81.0603 0005209   2.9858  32.3405  1.00272044 51259
GALAXY 17 (G-17)        
1 31307U 07016B   26154.90658267 -.00000195  00000+0  00000+0 0  9993
2 31307   2.9388  80.0670 0005003  12.1854  41.4781  1.00270885 69670
INTELSAT 11 (IS-11)     
1 32253U 07044B   26154.81738094 -.00000117  00000+0  00000+0 0  9996
2 32253   3.5306  78.8304 0001583  72.8739 219.3576  0.99053331 68311
HORIZONS-2              
1 32388U 07063B   26154.90883602 -.00000242  00000+0  00000+0 0  9991
2 32388   2.5678  80.7839 0004229 351.0594  73.9145  1.00274015 67689
DIRECTV 11              
1 32729U 08013A   26154.90380933 -.00000114  00000+0  00000+0 0  9993
2 32729   0.0080 288.3336 0000570  99.8948  90.3221  1.00270546 45466
GALAXY 18 (G-18)        
1 32951U 08024A   26154.89904264  .00000037  00000+0  00000+0 0  9992
2 32951   0.0152  10.9583 0003315  70.7685  11.2749  1.00271586 45723
INTELSAT 25 (IS-25)     
1 33153U 08034A   26154.88803593 -.00000141  00000+0  00000+0 0  9997
2 33153   2.6738  80.4931 0002011  31.2063 281.4521  0.99026769 65559
GALAXY 19 (G-19)        
1 33376U 08045A   26154.90424266 -.00000127  00000+0  00000+0 0  9999
2 33376   0.0160  21.0865 0003501  69.9652  29.8391  1.00270690 64770
FM-5                    
1 35493U 09034A   26154.62117243 -.00000188  00000+0  00000+0 0  9990
2 35493   0.0118 299.7148 0000329 342.6474 107.1701  1.00269774 46508
INTELSAT 14 (IS-14)     
1 36097U 09064A   26154.91455604 -.00000261  00000+0  00000+0 0  9994
2 36097   0.0117 303.3916 0002964 144.5922  88.6319  1.00271571 60475
INTELSAT 15 (IS-15)     
1 36106U 09067A   26154.86896917 -.00000173  00000+0  00000+0 0  9990
2 36106   0.0126 312.3382 0002508 124.6021 213.3567  1.00270902 41092
DIRECTV 12              
1 36131U 09075A   26154.90311600 -.00000091  00000+0  00000+0 0  9992
2 36131   0.0426 146.2591 0000433 250.3601  78.1420  1.00271673 46428
INTELSAT 16 (IS-16)     
1 36397U 10006A   26154.90831602 -.00000233  00000+0  00000+0 0  9999
2 36397   0.0112  17.1509 0002345  67.2880  58.7342  1.00271722 59524
XM-5                    
1 37185U 10053A   26154.90051598 -.00000012  00000+0  00000+0 0  9990
2 37185   0.0627 274.2458 0003117 275.9029 271.2009  1.00274680 57358
INTELSAT 17 (IS-17)     
1 37238U 10065B   26154.86521913  .00000010  00000+0  00000+0 0  9997
2 37238   0.0098 280.9626 0002375 155.3437 193.4827  1.00271682 53111
INTELSAT 28 (IS-28)     
1 37392U 11016A   26154.91715605 -.00000213  00000+0  00000+0 0  9990
2 37392   1.7718  82.7850 0004092 350.3713 117.7194  1.00270439 53157
INTELSAT 18 (IS-18)     
1 37834U 11056A   26154.81651426  .00000065  00000+0  00000+0 0  9998
2 37834   0.0148 290.3203 0002273 153.6049 282.2945  1.00271387 53673
INTELSAT 22 (IS-22)     
1 38098U 12011A   26154.86643248 -.00000047  00000+0  00000+0 0  9992
2 38098   0.0092  36.3729 0002041  36.7048 203.2481  1.00271920  7050
INTELSAT 19 (IS-19)     
1 38356U 12030A   26154.88491591 -.00000044  00000+0  00000+0 0  9991
2 38356   0.0187 330.5606 0003247 109.3755 296.9797  1.00272188 50319
INTELSAT 20 (IS-20)     
1 38740U 12043A   26154.86573914 -.00000012  00000+0  00000+0 0  9995
2 38740   0.0058  91.3222 0001629  86.8326  94.3264  1.00271717 50613
